[{"OBJECT_NAME":"STARLINK-5731","OBJECT_ID":"2023-083BA","EPOCH":"2026-03-09T08:32:43.041408","MEAN_MOTION":15.02773384,"ECCENTRICITY":0.0004484,"INCLINATION":43.0043,"RA_OF_ASC_NODE":70.2888,"ARG_OF_PERICENTER":152.1255,"MEAN_ANOMALY":207.9829,"EPHEMERIS_TYPE":0,"CLASSIFICATION_TYPE":"U","NORAD_CAT_ID":56924,"ELEMENT_SET_NO":999,"REV_AT_EPOCH":15188,"BSTAR":0.0021362646,"MEAN_MOTION_DOT":0.0002896,"MEAN_MOTION_DDOT":0},{"OBJECT_NAME":"OBJECT A","OBJECT_ID":"2024-128A","EPOCH":"2026-03-09T23:23:08.128896","MEAN_MOTION":15.00647164,"ECCENTRICITY":0.00604583,"INCLINATION":61.9933,"RA_OF_ASC_NODE":216.2149,"ARG_OF_PERICENTER":112.7248,"MEAN_ANOMALY":248.0248,"EPHEMERIS_TYPE":0,"CLASSIFICATION_TYPE":"U","NORAD_CAT_ID":60235,"ELEMENT_SET_NO":999,"REV_AT_EPOCH":9111,"BSTAR":0.00034041236,"MEAN_MOTION_DOT":4.284e-5,"MEAN_MOTION_DDOT":0}]
